start=new Date('2022-01-13T00:00:00.000Z').valueOf();
sats=[{"MEAN_ANOMALY":"141.6491","MEAN_MOTION_DDOT":"0.0000000000000","SITE":"AFETR","BSTAR":"-0.02372700000000","MEAN_ELEMENT_THEORY":"SGP4","LAUNCH_DATE":"2021-11-13","MEAN_MOTION":"15.30480161","PERIOD":"94.088","REF_FRAME":"TEME","REV_AT_EPOCH":"367","PERIAPSIS":"473.345","EPOCH":"2022-01-12T14:00:01.000224","OBJECT_ID":"2021-104AC","FILE":"3270709","ELEMENT_SET_NO":"999","CLASSIFICATION_TYPE":"U","RCS_SIZE":"LARGE","ECCENTRICITY":"0.00015110","GP_ID":"193736398","APOAPSIS":"475.416","INCLINATION":"53.2177","MEAN_MOTION_DOT":"-0.00658499","OBJECT_TYPE":"PAYLOAD","OBJECT_NAME":"STARLINK-3134","EPHEMERIS_TYPE":"0","NORAD_CAT_ID":"49434","COUNTRY_CODE":"US","RA_OF_ASC_NODE":"200.7493","SEMIMAJOR_AXIS":"6852.516","TIME_SYSTEM":"UTC","TLE_LINE2":"2 49434  53.2177 200.7493 0001511  60.3565 141.6491 15.30480161  3670","DECAY_DATE":null,"TLE_LINE1":"1 49434U 21104AC  22012.58334491 -.00658499  00000-0 -23727-1 0  9991","ARG_OF_PERICENTER":"60.3565","CENTER_NAME":"EARTH"},{"LAUNCH_DATE":"2021-11-13","BSTAR":"-0.00345230000000","MEAN_ELEMENT_THEORY":"SGP4","SITE":"AFETR","MEAN_MOTION_DDOT":"0.0000000000000","MEAN_ANOMALY":"125.6139","FILE":"3270709","OBJECT_ID":"2021-104AD","EPOCH":"2022-01-12T14:00:01.000224","PERIAPSIS":"375.645","REV_AT_EPOCH":"370","PERIOD":"92.086","REF_FRAME":"TEME","MEAN_MOTION":"15.63752548","RA_OF_ASC_NODE":"196.2663","COUNTRY_CODE":"US","MEAN_MOTION_DOT":"-0.00316808","INCLINATION":"53.2177","NORAD_CAT_ID":"49435","OBJECT_TYPE":"PAYLOAD","OBJECT_NAME":"STARLINK-3117","EPHEMERIS_TYPE":"0","ECCENTRICITY":"0.00017560","GP_ID":"193735644","APOAPSIS":"378.017","RCS_SIZE":"LARGE","CLASSIFICATION_TYPE":"U","ELEMENT_SET_NO":"999","CENTER_NAME":"EARTH","ARG_OF_PERICENTER":"35.7894","TLE_LINE1":"1 49435U 21104AD  22012.58334491 -.00316808  00000-0 -34523-2 0  9994","DECAY_DATE":null,"TLE_LINE2":"2 49435  53.2177 196.2663 0001756  35.7894 125.6139 15.63752548  3703","SEMIMAJOR_AXIS":"6754.966","TIME_SYSTEM":"UTC"},{"REV_AT_EPOCH":"1074","PERIOD":"91.531","REF_FRAME":"TEME","MEAN_MOTION":"15.73228966","FILE":"3270580","OBJECT_ID":"2021-104AE","EPOCH":"2022-01-12T16:00:00.999936","PERIAPSIS":"348.063","MEAN_MOTION_DDOT":"0.0000000000000","MEAN_ANOMALY":"128.1832","LAUNCH_DATE":"2021-11-13","BSTAR":"-0.00001407000000","MEAN_ELEMENT_THEORY":"SGP4","SITE":"AFETR","TLE_LINE2":"2 49436  53.2162 195.4416 0002400  19.7501 128.1832 15.73228966 10742","SEMIMAJOR_AXIS":"6727.813","TIME_SYSTEM":"UTC","CENTER_NAME":"EARTH","ARG_OF_PERICENTER":"19.7501","DECAY_DATE":null,"TLE_LINE1":"1 49436U 21104AE  22012.66667824 -.00002599  00000-0 -14070-4 0  9999","RCS_SIZE":"LARGE","CLASSIFICATION_TYPE":"U","ELEMENT_SET_NO":"999","RA_OF_ASC_NODE":"195.4416","COUNTRY_CODE":"US","MEAN_MOTION_DOT":"-0.00002599","INCLINATION":"53.2162","OBJECT_TYPE":"PAYLOAD","NORAD_CAT_ID":"49436","EPHEMERIS_TYPE":"0","OBJECT_NAME":"STARLINK-3049","GP_ID":"193709425","ECCENTRICITY":"0.00024000","APOAPSIS":"351.292"},{"EPOCH":"2022-01-12T14:00:01.000224","PERIAPSIS":"347.991","FILE":"3270709","OBJECT_ID":"2021-104AF","PERIOD":"91.532","REF_FRAME":"TEME","MEAN_MOTION":"15.73224859","REV_AT_EPOCH":"370","BSTAR":"-0.00022366000000","MEAN_ELEMENT_THEORY":"SGP4","SITE":"AFETR","LAUNCH_DATE":"2021-11-13","MEAN_ANOMALY":"15.9479","MEAN_MOTION_DDOT":"0.0000000000000","DECAY_DATE":null,"TLE_LINE1":"1 49437U 21104AF  22012.58334491 -.00031931  00000-0 -22366-3 0  9990","CENTER_NAME":"EARTH","ARG_OF_PERICENTER":"22.7672","TIME_SYSTEM":"UTC","SEMIMAJOR_AXIS":"6727.824","TLE_LINE2":"2 49437  53.2159 195.8443 0002524  22.7672  15.9479 15.73224859  3708","INCLINATION":"53.2159","MEAN_MOTION_DOT":"-0.00031931","EPHEMERIS_TYPE":"0","OBJECT_TYPE":"PAYLOAD","NORAD_CAT_ID":"49437","OBJECT_NAME":"STARLINK-3130","GP_ID":"193736148","ECCENTRICITY":"0.00025240","APOAPSIS":"351.387","RA_OF_ASC_NODE":"195.8443","COUNTRY_CODE":"US","ELEMENT_SET_NO":"999","RCS_SIZE":"LARGE","CLASSIFICATION_TYPE":"U"},{"EPOCH":"2022-01-12T16:00:00.999936","PERIAPSIS":"347.918","FILE":"3270601","OBJECT_ID":"2021-104AG","REF_FRAME":"TEME","PERIOD":"91.532","MEAN_MOTION":"15.73214870","REV_AT_EPOCH":"1074","MEAN_ELEMENT_THEORY":"SGP4","BSTAR":"-0.00004304800000","SITE":"AFETR","LAUNCH_DATE":"2021-11-13","MEAN_ANOMALY":"129.2564","MEAN_MOTION_DDOT":"0.0000000000000","TLE_LINE1":"1 49438U 21104AG  22012.66667824 -.00006664  00000-0 -43048-4 0  9995","DECAY_DATE":null,"CENTER_NAME":"EARTH","ARG_OF_PERICENTER":"22.3561","SEMIMAJOR_AXIS":"6727.853","TIME_SYSTEM":"UTC","TLE_LINE2":"2 49438  53.2156 195.4293 0002675  22.3561 129.2564 15.73214870 10743","OBJECT_TYPE":"PAYLOAD","NORAD_CAT_ID":"49438","EPHEMERIS_TYPE":"0","OBJECT_NAME":"STARLINK-3044","INCLINATION":"53.2156","MEAN_MOTION_DOT":"-0.00006664","APOAPSIS":"351.517","GP_ID":"193709636","ECCENTRICITY":"0.00026750","RA_OF_ASC_NODE":"195.4293","COUNTRY_CODE":"US","ELEMENT_SET_NO":"999","RCS_SIZE":"LARGE","CLASSIFICATION_TYPE":"U"},{"CLASSIFICATION_TYPE":"U","RCS_SIZE":"LARGE","ELEMENT_SET_NO":"999","COUNTRY_CODE":"US","RA_OF_ASC_NODE":"195.8337","ECCENTRICITY":"0.00027050","GP_ID":"193735145","APOAPSIS":"351.600","INCLINATION":"53.2159","MEAN_MOTION_DOT":"0.00004480","OBJECT_NAME":"STARLINK-3108","OBJECT_TYPE":"PAYLOAD","NORAD_CAT_ID":"49439","EPHEMERIS_TYPE":"0","TLE_LINE2":"2 49439  53.2159 195.8337 0002705  17.1330  27.1598 15.73192927  3709","SEMIMAJOR_AXIS":"6727.915","TIME_SYSTEM":"UTC","ARG_OF_PERICENTER":"17.1330","CENTER_NAME":"EARTH","DECAY_DATE":null,"TLE_LINE1":"1 49439U 21104AH  22012.58334491  .00004480  00000-0  36342-4 0  9999","MEAN_MOTION_DDOT":"0.0000000000000","MEAN_ANOMALY":"27.1598","LAUNCH_DATE":"2021-11-13","SITE":"AFETR","BSTAR":"0.00003634200000","MEAN_ELEMENT_THEORY":"SGP4","REV_AT_EPOCH":"370","MEAN_MOTION":"15.73192927","PERIOD":"91.534","REF_FRAME":"TEME","OBJECT_ID":"2021-104AH","FILE":"3270709","PERIAPSIS":"347.960","EPOCH":"2022-01-12T14:00:01.000224"},{"SITE":"AFETR","BSTAR":"-0.00001280300000","MEAN_ELEMENT_THEORY":"SGP4","LAUNCH_DATE":"2021-11-13","MEAN_ANOMALY":"130.0257","MEAN_MOTION_DDOT":"0.0000000000000","PERIAPSIS":"348.023","EPOCH":"2022-01-12T16:00:00.999936","OBJECT_ID":"2021-104AJ","FILE":"3270599","MEAN_MOTION":"15.73234022","PERIOD":"91.531","REF_FRAME":"TEME","REV_AT_EPOCH":"1074","ECCENTRICITY":"0.00024380","GP_ID":"193709842","APOAPSIS":"351.303","MEAN_MOTION_DOT":"-0.00002421","INCLINATION":"53.2159","OBJECT_NAME":"STARLINK-3105","OBJECT_TYPE":"PAYLOAD","NORAD_CAT_ID":"49440","EPHEMERIS_TYPE":"0","COUNTRY_CODE":"US","RA_OF_ASC_NODE":"195.4288","ELEMENT_SET_NO":"999","CLASSIFICATION_TYPE":"U","RCS_SIZE":"LARGE","DECAY_DATE":null,"TLE_LINE1":"1 49440U 21104AJ  22012.66667824 -.00002421  00000-0 -12803-4 0  9990","ARG_OF_PERICENTER":"22.5902","CENTER_NAME":"EARTH","SEMIMAJOR_AXIS":"6727.798","TIME_SYSTEM":"UTC","TLE_LINE2":"2 49440  53.2159 195.4288 0002438  22.5902 130.0257 15.73234022 10741"},{"LAUNCH_DATE":"2021-11-13","BSTAR":"-0.00073630000000","MEAN_ELEMENT_THEORY":"SGP4","SITE":"AFETR","MEAN_MOTION_DDOT":"0.0000000000000","MEAN_ANOMALY":"135.4375","FILE":"3270600","OBJECT_ID":"2021-104AK","EPOCH":"2022-01-12T16:00:00.999936","PERIAPSIS":"347.858","REV_AT_EPOCH":"1075","PERIOD":"91.529","REF_FRAME":"TEME","MEAN_MOTION":"15.73279067","RA_OF_ASC_NODE":"195.4255","COUNTRY_CODE":"US","MEAN_MOTION_DOT":"-0.00103066","INCLINATION":"53.2165","NORAD_CAT_ID":"49441","OBJECT_TYPE":"PAYLOAD","OBJECT_NAME":"STARLINK-3128","EPHEMERIS_TYPE":"0","ECCENTRICITY":"0.00024930","GP_ID":"193709850","APOAPSIS":"351.212","RCS_SIZE":"LARGE","CLASSIFICATION_TYPE":"U","ELEMENT_SET_NO":"999","CENTER_NAME":"EARTH","ARG_OF_PERICENTER":"21.9722","TLE_LINE1":"1 49441U 21104AK  22012.66667824 -.00103066  00000-0 -73630-3 0  9992","DECAY_DATE":null,"TLE_LINE2":"2 49441  53.2165 195.4255 0002493  21.9722 135.4375 15.73279067 10756","SEMIMAJOR_AXIS":"6727.670","TIME_SYSTEM":"UTC"},{"REV_AT_EPOCH":"1075","MEAN_MOTION":"15.73232265","REF_FRAME":"TEME","PERIOD":"91.531","OBJECT_ID":"2021-104AL","FILE":"3270602","PERIAPSIS":"348.012","EPOCH":"2022-01-12T16:00:00.999936","MEAN_MOTION_DDOT":"0.0000000000000","MEAN_ANOMALY":"128.9469","LAUNCH_DATE":"2021-11-13","SITE":"AFETR","MEAN_ELEMENT_THEORY":"SGP4","BSTAR":"-0.00001254500000","TLE_LINE2":"2 49442  53.2165 195.4331 0002462  24.6003 128.9469 15.73232265 10750","SEMIMAJOR_AXIS":"6727.803","TIME_SYSTEM":"UTC","ARG_OF_PERICENTER":"24.6003","CENTER_NAME":"EARTH","DECAY_DATE":null,"TLE_LINE1":"1 49442U 21104AL  22012.66667824 -.00002385  00000-0 -12545-4 0  9994","CLASSIFICATION_TYPE":"U","RCS_SIZE":"LARGE","ELEMENT_SET_NO":"999","COUNTRY_CODE":"US","RA_OF_ASC_NODE":"195.4331","APOAPSIS":"351.325","GP_ID":"193709670","ECCENTRICITY":"0.00024620","NORAD_CAT_ID":"49442","OBJECT_TYPE":"PAYLOAD","EPHEMERIS_TYPE":"0","OBJECT_NAME":"STARLINK-3098","MEAN_MOTION_DOT":"-0.00002385","INCLINATION":"53.2165"},{"GP_ID":"193709672","ECCENTRICITY":"0.00024710","APOAPSIS":"351.355","INCLINATION":"53.2159","MEAN_MOTION_DOT":"-0.00002851","NORAD_CAT_ID":"49443","OBJECT_TYPE":"PAYLOAD","OBJECT_NAME":"STARLINK-3136","EPHEMERIS_TYPE":"0","COUNTRY_CODE":"US","RA_OF_ASC_NODE":"195.4191","ELEMENT_SET_NO":"999","CLASSIFICATION_TYPE":"U","RCS_SIZE":"LARGE","TLE_LINE1":"1 49443U 21104AM  22012.66667824 -.00002851  00000-0 -15866-4 0  9992","DECAY_DATE":null,"ARG_OF_PERICENTER":"17.1133","CENTER_NAME":"EARTH","SEMIMAJOR_AXIS":"6727.828","TIME_SYSTEM":"UTC","TLE_LINE2":"2 49443  53.2159 195.4191 0002471  17.1133 141.0953 15.73223631 10749","SITE":"AFETR","BSTAR":"-0.00001586600000","MEAN_ELEMENT_THEORY":"SGP4","LAUNCH_DATE":"2021-11-13","MEAN_ANOMALY":"141.0953","MEAN_MOTION_DDOT":"0.0000000000000","PERIAPSIS":"348.030","EPOCH":"2022-01-12T16:00:00.999936","OBJECT_ID":"2021-104AM","FILE":"3270602","MEAN_MOTION":"15.73223631","PERIOD":"91.532","REF_FRAME":"TEME","REV_AT_EPOCH":"1074"}];
